{"fetched_at":"2026-07-16T06:43:24.110Z","source":"https://celestrak.org/NORAD/elements/gp.php?NAME=TIGER&FORMAT=JSON","constellation":"oq-technology","records":[{"OBJECT_NAME":"TIGER-8","OBJECT_ID":"2024-043Y","EPOCH":"2026-07-15T20:19:28.468128","CLASSIFICATION_TYPE":"U","MEAN_MOTION":15.45175206,"ECCENTRICITY":0.00089163,"INCLINATION":97.5573,"RA_OF_ASC_NODE":346.6184,"ARG_OF_PERICENTER":100.9033,"MEAN_ANOMALY":259.3219,"EPHEMERIS_TYPE":0,"NORAD_CAT_ID":59120,"ELEMENT_SET_NO":999,"REV_AT_EPOCH":13221,"BSTAR":0.00011322617,"MEAN_MOTION_DOT":0.00005281,"MEAN_MOTION_DDOT":0},{"OBJECT_NAME":"TIGER-7","OBJECT_ID":"2024-043AV","EPOCH":"2026-07-15T22:39:13.041216","CLASSIFICATION_TYPE":"U","MEAN_MOTION":15.49359171,"ECCENTRICITY":0.00067739,"INCLINATION":97.5516,"RA_OF_ASC_NODE":349.2314,"ARG_OF_PERICENTER":74.6462,"MEAN_ANOMALY":285.5537,"EPHEMERIS_TYPE":0,"NORAD_CAT_ID":59141,"ELEMENT_SET_NO":999,"REV_AT_EPOCH":13242,"BSTAR":0.00012608629,"MEAN_MOTION_DOT":0.00006813,"MEAN_MOTION_DDOT":0}]}
