TIGER-8                 
1 59120U 24043Y   26196.84685727  .00005281  00000+0  11323-3 0  9999
2 59120  97.5573 346.6184 0008916 100.9033 259.3219 15.45175206132213
TIGER-7                 
1 59141U 24043AV  26196.94390094  .00006813  00000+0  12609-3 0  9993
2 59141  97.5516 349.2314 0006773  74.6462 285.5537 15.49359171132425
